start=new Date('2022-11-12T00:00:00.000Z').valueOf();
sats=[{"EPHEMERIS_TYPE":"0","CENTER_NAME":"EARTH","ELEMENT_SET_NO":"999","MEAN_ANOMALY":"269.6465","PERIOD":"95.593","OBJECT_NAME":"STARLINK-1764","TLE_LINE1":"1 46343U 20062U   22315.55930889  .00007727  00000-0  53716-3 0  9998","MEAN_ELEMENT_THEORY":"SGP4","RCS_SIZE":"LARGE","ECCENTRICITY":"0.00011710","RA_OF_ASC_NODE":"47.0645","FILE":"3651496","BSTAR":"0.00053716000000","MEAN_MOTION":"15.06393883","PERIAPSIS":"546.421","TIME_SYSTEM":"UTC","COUNTRY_CODE":"US","INCLINATION":"53.0552","DECAY_DATE":null,"NORAD_CAT_ID":"46343","GP_ID":"217431030","REF_FRAME":"TEME","CLASSIFICATION_TYPE":"U","SEMIMAJOR_AXIS":"6925.367","MEAN_MOTION_DDOT":"0.0000000000000","EPOCH":"2022-11-11T13:25:24.288096","SITE":"AFETR","APOAPSIS":"548.043","ARG_OF_PERICENTER":"90.4658","OBJECT_ID":"2020-062U","OBJECT_TYPE":"PAYLOAD","LAUNCH_DATE":"2020-09-03","MEAN_MOTION_DOT":"0.00007727","REV_AT_EPOCH":"12159","TLE_LINE2":"2 46343  53.0552  47.0645 0001171  90.4658 269.6465 15.06393883121592"},{"OBJECT_NAME":"STARLINK-1765","MEAN_ELEMENT_THEORY":"SGP4","TLE_LINE1":"1 46344U 20062V   22315.57774558  .00000342  00000-0  41883-4 0  9999","RCS_SIZE":"LARGE","RA_OF_ASC_NODE":"46.9930","ECCENTRICITY":"0.00012990","EPHEMERIS_TYPE":"0","CENTER_NAME":"EARTH","ELEMENT_SET_NO":"999","MEAN_ANOMALY":"254.5110","PERIOD":"95.593","COUNTRY_CODE":"US","DECAY_DATE":null,"INCLINATION":"53.0548","NORAD_CAT_ID":"46344","GP_ID":"217490068","BSTAR":"0.00004188300000","FILE":"3651775","MEAN_MOTION":"15.06385496","PERIAPSIS":"546.358","TIME_SYSTEM":"UTC","SITE":"AFETR","APOAPSIS":"548.158","ARG_OF_PERICENTER":"105.6022","OBJECT_ID":"2020-062V","OBJECT_TYPE":"PAYLOAD","REF_FRAME":"TEME","CLASSIFICATION_TYPE":"U","SEMIMAJOR_AXIS":"6925.393","MEAN_MOTION_DDOT":"0.0000000000000","EPOCH":"2022-11-11T13:51:57.218112","REV_AT_EPOCH":"12159","TLE_LINE2":"2 46344  53.0548  46.9930 0001299 105.6022 254.5110 15.06385496121599","LAUNCH_DATE":"2020-09-03","MEAN_MOTION_DOT":"0.00000342"},{"LAUNCH_DATE":"2020-09-03","MEAN_MOTION_DOT":"-0.00000555","TLE_LINE2":"2 46345  53.0569  66.9657 0001404 101.8969 258.2177 15.06391874121318","REV_AT_EPOCH":"12131","MEAN_MOTION_DDOT":"0.0000000000000","SEMIMAJOR_AXIS":"6925.373","EPOCH":"2022-11-11T13:53:15.206208","REF_FRAME":"TEME","CLASSIFICATION_TYPE":"U","OBJECT_TYPE":"PAYLOAD","OBJECT_ID":"2020-062W","ARG_OF_PERICENTER":"101.8969","SITE":"AFETR","APOAPSIS":"548.211","MEAN_MOTION":"15.06391874","PERIAPSIS":"546.266","TIME_SYSTEM":"UTC","FILE":"3651775","BSTAR":"-0.00001840300000","GP_ID":"217488849","NORAD_CAT_ID":"46345","COUNTRY_CODE":"US","DECAY_DATE":null,"INCLINATION":"53.0569","ELEMENT_SET_NO":"999","PERIOD":"95.593","MEAN_ANOMALY":"258.2177","CENTER_NAME":"EARTH","EPHEMERIS_TYPE":"0","RCS_SIZE":"LARGE","RA_OF_ASC_NODE":"66.9657","ECCENTRICITY":"0.00014040","OBJECT_NAME":"STARLINK-1767","MEAN_ELEMENT_THEORY":"SGP4","TLE_LINE1":"1 46345U 20062W   22315.57864822 -.00000555  00000-0 -18403-4 0  9994"},{"REV_AT_EPOCH":"12387","TLE_LINE2":"2 46346  53.0546 243.5190 0002844  26.3672 333.7473 15.34219376123878","MEAN_MOTION_DOT":"0.00016063","LAUNCH_DATE":"2020-09-03","APOAPSIS":"465.188","SITE":"AFETR","OBJECT_TYPE":"PAYLOAD","OBJECT_ID":"2020-062X","ARG_OF_PERICENTER":"26.3672","CLASSIFICATION_TYPE":"U","REF_FRAME":"TEME","EPOCH":"2022-11-11T04:08:35.040192","MEAN_MOTION_DDOT":"0.0000000000000","SEMIMAJOR_AXIS":"6841.377","INCLINATION":"53.0546","DECAY_DATE":null,"COUNTRY_CODE":"US","GP_ID":"217431280","NORAD_CAT_ID":"46346","BSTAR":"0.00048826000000","FILE":"3651496","MEAN_MOTION":"15.34219376","PERIAPSIS":"461.296","TIME_SYSTEM":"UTC","TLE_LINE1":"1 46346U 20062X   22315.17262778  .00016063  00000-0  48826-3 0  9993","MEAN_ELEMENT_THEORY":"SGP4","OBJECT_NAME":"STARLINK-1546","RA_OF_ASC_NODE":"243.5190","ECCENTRICITY":"0.00028440","RCS_SIZE":"LARGE","CENTER_NAME":"EARTH","EPHEMERIS_TYPE":"0","PERIOD":"93.859","MEAN_ANOMALY":"333.7473","ELEMENT_SET_NO":"999"},{"REV_AT_EPOCH":"12191","TLE_LINE2":"2 46347  53.0572  22.4636 0001527  62.8779 297.2366 15.06378167121918","LAUNCH_DATE":"2020-09-03","MEAN_MOTION_DOT":"0.00000543","SITE":"AFETR","APOAPSIS":"548.338","OBJECT_TYPE":"PAYLOAD","OBJECT_ID":"2020-062Y","ARG_OF_PERICENTER":"62.8779","REF_FRAME":"TEME","CLASSIFICATION_TYPE":"U","MEAN_MOTION_DDOT":"0.0000000000000","SEMIMAJOR_AXIS":"6925.415","EPOCH":"2022-11-11T11:18:42.560352","COUNTRY_CODE":"US","INCLINATION":"53.0572","DECAY_DATE":null,"GP_ID":"217431530","NORAD_CAT_ID":"46347","FILE":"3651496","BSTAR":"0.00005538200000","PERIAPSIS":"546.223","MEAN_MOTION":"15.06378167","TIME_SYSTEM":"UTC","OBJECT_NAME":"STARLINK-1547","TLE_LINE1":"1 46347U 20062Y   22315.47132593  .00000543  00000-0  55382-4 0  9990","MEAN_ELEMENT_THEORY":"SGP4","RCS_SIZE":"LARGE","RA_OF_ASC_NODE":"22.4636","ECCENTRICITY":"0.00015270","CENTER_NAME":"EARTH","EPHEMERIS_TYPE":"0","ELEMENT_SET_NO":"999","PERIOD":"95.594","MEAN_ANOMALY":"297.2366"},{"TLE_LINE1":"1 46348U 20062Z   22315.78047189  .00009716  00000-0  67023-3 0  9996","MEAN_ELEMENT_THEORY":"SGP4","OBJECT_NAME":"STARLINK-1553","RA_OF_ASC_NODE":"46.0669","ECCENTRICITY":"0.00016520","RCS_SIZE":"LARGE","EPHEMERIS_TYPE":"0","CENTER_NAME":"EARTH","PERIOD":"95.592","MEAN_ANOMALY":"275.8243","ELEMENT_SET_NO":"999","INCLINATION":"53.0556","DECAY_DATE":null,"COUNTRY_CODE":"US","GP_ID":"217489569","NORAD_CAT_ID":"46348","BSTAR":"0.00067023000000","FILE":"3651775","TIME_SYSTEM":"UTC","PERIAPSIS":"546.068","MEAN_MOTION":"15.06400570","APOAPSIS":"548.356","SITE":"AFETR","OBJECT_TYPE":"PAYLOAD","OBJECT_ID":"2020-062Z","ARG_OF_PERICENTER":"84.2935","CLASSIFICATION_TYPE":"U","REF_FRAME":"TEME","EPOCH":"2022-11-11T18:43:52.771296","MEAN_MOTION_DDOT":"0.0000000000000","SEMIMAJOR_AXIS":"6925.347","REV_AT_EPOCH":"12162","TLE_LINE2":"2 46348  53.0556  46.0669 0001652  84.2935 275.8243 15.06400570121628","MEAN_MOTION_DOT":"0.00009716","LAUNCH_DATE":"2020-09-03"},{"LAUNCH_DATE":"2020-09-03","MEAN_MOTION_DOT":"0.00019059","REV_AT_EPOCH":"12193","TLE_LINE2":"2 46349  53.0549  22.2763 0002087  66.7308 293.3901 15.06391392121935","REF_FRAME":"TEME","CLASSIFICATION_TYPE":"U","MEAN_MOTION_DDOT":"0.0000000000000","SEMIMAJOR_AXIS":"6925.375","EPOCH":"2022-11-11T12:17:06.712800","SITE":"AFETR","APOAPSIS":"548.685","OBJECT_TYPE":"PAYLOAD","OBJECT_ID":"2020-062AA","ARG_OF_PERICENTER":"66.7308","FILE":"3651496","BSTAR":"0.00129520000000","MEAN_MOTION":"15.06391392","PERIAPSIS":"545.795","TIME_SYSTEM":"UTC","COUNTRY_CODE":"US","INCLINATION":"53.0549","DECAY_DATE":null,"GP_ID":"217432531","NORAD_CAT_ID":"46349","CENTER_NAME":"EARTH","EPHEMERIS_TYPE":"0","ELEMENT_SET_NO":"999","PERIOD":"95.593","MEAN_ANOMALY":"293.3901","OBJECT_NAME":"STARLINK-1575","TLE_LINE1":"1 46349U 20062AA  22315.51188325  .00019059  00000-0  12952-2 0  9997","MEAN_ELEMENT_THEORY":"SGP4","RCS_SIZE":"LARGE","ECCENTRICITY":"0.00020870","RA_OF_ASC_NODE":"22.2763"},{"CLASSIFICATION_TYPE":"U","REF_FRAME":"TEME","EPOCH":"2022-11-11T16:12:35.894016","MEAN_MOTION_DDOT":"0.0000000000000","SEMIMAJOR_AXIS":"6925.385","APOAPSIS":"548.161","SITE":"AFETR","OBJECT_TYPE":"PAYLOAD","OBJECT_ID":"2020-062AB","ARG_OF_PERICENTER":"93.2092","MEAN_MOTION_DOT":"0.00002528","LAUNCH_DATE":"2020-09-03","REV_AT_EPOCH":"12133","TLE_LINE2":"2 46350  53.0546  66.5456 0001316  93.2092 266.9047 15.06388117121335","EPHEMERIS_TYPE":"0","CENTER_NAME":"EARTH","PERIOD":"95.593","MEAN_ANOMALY":"266.9047","ELEMENT_SET_NO":"999","MEAN_ELEMENT_THEORY":"SGP4","TLE_LINE1":"1 46350U 20062AB  22315.67541544  .00002528  00000-0  18859-3 0  9998","OBJECT_NAME":"STARLINK-1617","RA_OF_ASC_NODE":"66.5456","ECCENTRICITY":"0.00013160","RCS_SIZE":"LARGE","FILE":"3651775","BSTAR":"0.00018859000000","PERIAPSIS":"546.339","TIME_SYSTEM":"UTC","MEAN_MOTION":"15.06388117","INCLINATION":"53.0546","DECAY_DATE":null,"COUNTRY_CODE":"US","GP_ID":"217488596","NORAD_CAT_ID":"46350"},{"MEAN_ANOMALY":"276.1595","PERIOD":"95.593","ELEMENT_SET_NO":"999","EPHEMERIS_TYPE":"0","CENTER_NAME":"EARTH","RA_OF_ASC_NODE":"46.7975","ECCENTRICITY":"0.00013770","RCS_SIZE":"LARGE","TLE_LINE1":"1 46351U 20062AC  22315.61364888  .00000415  00000-0  46735-4 0  9995","MEAN_ELEMENT_THEORY":"SGP4","OBJECT_NAME":"STARLINK-1646","MEAN_MOTION":"15.06386215","PERIAPSIS":"546.302","TIME_SYSTEM":"UTC","BSTAR":"0.00004673500000","FILE":"3651775","NORAD_CAT_ID":"46351","GP_ID":"217489351","INCLINATION":"53.0571","DECAY_DATE":null,"COUNTRY_CODE":"US","EPOCH":"2022-11-11T14:43:39.263232","SEMIMAJOR_AXIS":"6925.391","MEAN_MOTION_DDOT":"0.0000000000000","CLASSIFICATION_TYPE":"U","REF_FRAME":"TEME","ARG_OF_PERICENTER":"83.9551","OBJECT_ID":"2020-062AC","OBJECT_TYPE":"PAYLOAD","APOAPSIS":"548.209","SITE":"AFETR","MEAN_MOTION_DOT":"0.00000415","LAUNCH_DATE":"2020-09-03","TLE_LINE2":"2 46351  53.0571  46.7975 0001377  83.9551 276.1595 15.06386215121612","REV_AT_EPOCH":"12161"},{"GP_ID":"217490069","NORAD_CAT_ID":"46352","DECAY_DATE":null,"INCLINATION":"53.0572","COUNTRY_CODE":"US","PERIAPSIS":"546.239","MEAN_MOTION":"15.06394401","TIME_SYSTEM":"UTC","BSTAR":"0.00018711000000","FILE":"3651775","RA_OF_ASC_NODE":"46.6116","ECCENTRICITY":"0.00014320","RCS_SIZE":"LARGE","TLE_LINE1":"1 46352U 20062AD  22315.66250802  .00002506  00000-0  18711-3 0  9996","MEAN_ELEMENT_THEORY":"SGP4","OBJECT_NAME":"STARLINK-1653","PERIOD":"95.592","MEAN_ANOMALY":"302.0834","ELEMENT_SET_NO":"999","EPHEMERIS_TYPE":"0","CENTER_NAME":"EARTH","TLE_LINE2":"2 46352  53.0572  46.6116 0001432  58.0294 302.0834 15.06394401121610","REV_AT_EPOCH":"12161","MEAN_MOTION_DOT":"0.00002506","LAUNCH_DATE":"2020-09-03","OBJECT_TYPE":"PAYLOAD","OBJECT_ID":"2020-062AD","ARG_OF_PERICENTER":"58.0294","APOAPSIS":"548.222","SITE":"AFETR","EPOCH":"2022-11-11T15:54:00.692928","MEAN_MOTION_DDOT":"0.0000000000000","SEMIMAJOR_AXIS":"6925.366","CLASSIFICATION_TYPE":"U","REF_FRAME":"TEME"}];
